{
    "links": {
        "self": "http://www.neowsapp.com/rest/v1/neo/3353631?api_key=iIulBulltgU6a56xZRHN4H3l9WmuAYTsLGpBGhQ2"
    },
    "id": "3353631",
    "neo_reference_id": "3353631",
    "name": "(2006 UC64)",
    "designation": "2006 UC64",
    "nasa_jpl_url": "http://ssd.jpl.nasa.gov/sbdb.cgi?sstr=3353631",
    "absolute_magnitude_h": 24.9,
    "estimated_diameter": {
        "kilometers": {
            "estimated_diameter_min": 0.0278326768,
            "estimated_diameter_max": 0.0622357573
        },
        "meters": {
            "estimated_diameter_min": 27.8326768072,
            "estimated_diameter_max": 62.2357573367
        },
        "miles": {
            "estimated_diameter_min": 0.0172944182,
            "estimated_diameter_max": 0.0386714948
        },
        "feet": {
            "estimated_diameter_min": 91.3145593761,
            "estimated_diameter_max": 204.1855621004
        }
    },
    "is_potentially_hazardous_asteroid": false,
    "close_approach_data": [
        {
            "close_approach_date": "2006-10-29",
            "close_approach_date_full": "2006-Oct-29 18:50",
            "epoch_date_close_approach": 1162147800000,
            "relative_velocity": {
                "kilometers_per_second": "18.999591786",
                "kilometers_per_hour": "68398.5304296914",
                "miles_per_hour": "42500.1868661602"
            },
            "miss_distance": {
                "astronomical": "0.0381524723",
                "lunar": "14.8413117247",
                "kilometers": "5707528.591314001",
                "miles": "3546493.8135391738"
            },
            "orbiting_body": "Earth"
        }
    ],
    "orbital_data": {
        "orbit_id": "9",
        "orbit_determination_date": "2017-04-06 09:07:47",
        "first_observation_date": "2006-10-23",
        "last_observation_date": "2006-10-26",
        "data_arc_in_days": 3,
        "observations_used": 28,
        "orbit_uncertainty": "9",
        "minimum_orbit_intersection": ".00301505",
        "jupiter_tisserand_invariant": "3.474",
        "epoch_osculation": "2454032.5",
        "eccentricity": ".6963756549091974",
        "semi_major_axis": "2.011873271230596",
        "inclination": "6.068317920763616",
        "ascending_node_longitude": "212.1183324712038",
        "orbital_period": "1042.315888918471",
        "perihelion_distance": ".6108537043830804",
        "perihelion_argument": "268.1572880086438",
        "aphelion_distance": "3.412892838078112",
        "perihelion_time": "2454084.415049741962",
        "mean_anomaly": "342.0693341569427",
        "mean_motion": ".3453847378010744",
        "equinox": "J2000",
        "orbit_class": {
            "orbit_class_type": "APO",
            "orbit_class_description": "Near-Earth asteroid orbits which cross the Earth’s orbit similar to that of 1862 Apollo",
            "orbit_class_range": "a (semi-major axis) > 1.0 AU; q (perihelion) < 1.017 AU"
        }
    },
    "is_sentry_object": false
}